[{"OBJECT_NAME":"SL-8 R/B","OBJECT_ID":"1979-089B","EPOCH":"2026-03-03T03:45:09.034848","MEAN_MOTION":14.42345443,"ECCENTRICITY":0.0017122,"INCLINATION":74.0674,"RA_OF_ASC_NODE":103.1389,"ARG_OF_PERICENTER":276.4773,"MEAN_ANOMALY":83.4434,"EPHEMERIS_TYPE":0,"CLASSIFICATION_TYPE":"U","NORAD_CAT_ID":11574,"ELEMENT_SET_NO":999,"REV_AT_EPOCH":43516,"BSTAR":9.2482e-5,"MEAN_MOTION_DOT":2.79e-6,"MEAN_MOTION_DDOT":0},{"OBJECT_NAME":"SL-14 R/B","OBJECT_ID":"1980-005B","EPOCH":"2026-03-03T03:36:40.535424","MEAN_MOTION":14.90920937,"ECCENTRICITY":0.0015602,"INCLINATION":82.5156,"RA_OF_ASC_NODE":313.4385,"ARG_OF_PERICENTER":179.6419,"MEAN_ANOMALY":180.4814,"EPHEMERIS_TYPE":0,"CLASSIFICATION_TYPE":"U","NORAD_CAT_ID":11672,"ELEMENT_SET_NO":999,"REV_AT_EPOCH":47551,"BSTAR":6.6594e-5,"MEAN_MOTION_DOT":6.83e-6,"MEAN_MOTION_DDOT":0},{"OBJECT_NAME":"SL-8 R/B","OBJECT_ID":"1981-003B","EPOCH":"2026-03-03T02:41:57.655104","MEAN_MOTION":15.10673845,"ECCENTRICITY":0.0262721,"INCLINATION":82.9392,"RA_OF_ASC_NODE":296.1055,"ARG_OF_PERICENTER":201.4811,"MEAN_ANOMALY":157.5238,"EPHEMERIS_TYPE":0,"CLASSIFICATION_TYPE":"U","NORAD_CAT_ID":12139,"ELEMENT_SET_NO":999,"REV_AT_EPOCH":31368,"BSTAR":0.00053549,"MEAN_MOTION_DOT":0.00020716,"MEAN_MOTION_DDOT":0},{"OBJECT_NAME":"SL-3 R/B","OBJECT_ID":"1981-046B","EPOCH":"2026-03-03T02:24:16.226784","MEAN_MOTION":15.41789085,"ECCENTRICITY":0.0020118,"INCLINATION":81.2313,"RA_OF_ASC_NODE":297.6564,"ARG_OF_PERICENTER":44.5562,"MEAN_ANOMALY":315.7294,"EPHEMERIS_TYPE":0,"CLASSIFICATION_TYPE":"U","NORAD_CAT_ID":12465,"ELEMENT_SET_NO":999,"REV_AT_EPOCH":43741,"BSTAR":0.00032548,"MEAN_MOTION_DOT":0.00013912,"MEAN_MOTION_DDOT":0},{"OBJECT_NAME":"SL-3 R/B","OBJECT_ID":"1981-103B","EPOCH":"2026-03-03T03:06:09.714240","MEAN_MOTION":15.2127561,"ECCENTRICITY":0.0012539,"INCLINATION":81.1568,"RA_OF_ASC_NODE":221.1275,"ARG_OF_PERICENTER":310.6589,"MEAN_ANOMALY":49.3551,"EPHEMERIS_TYPE":0,"CLASSIFICATION_TYPE":"U","NORAD_CAT_ID":12904,"ELEMENT_SET_NO":999,"REV_AT_EPOCH":97223,"BSTAR":0.00030811,"MEAN_MOTION_DOT":6.925e-5,"MEAN_MOTION_DDOT":0},{"OBJECT_NAME":"SL-3 R/B","OBJECT_ID":"1982-013B","EPOCH":"2026-03-03T03:21:45.963648","MEAN_MOTION":15.21933387,"ECCENTRICITY":0.0022304,"INCLINATION":81.1771,"RA_OF_ASC_NODE":168.445,"ARG_OF_PERICENTER":199.7505,"MEAN_ANOMALY":160.2865,"EPHEMERIS_TYPE":0,"CLASSIFICATION_TYPE":"U","NORAD_CAT_ID":13068,"ELEMENT_SET_NO":999,"REV_AT_EPOCH":40335,"BSTAR":0.00024191,"MEAN_MOTION_DOT":5.574e-5,"MEAN_MOTION_DDOT":0},{"OBJECT_NAME":"SL-3 R/B","OBJECT_ID":"1982-039B","EPOCH":"2026-03-03T03:54:48.467808","MEAN_MOTION":15.10033286,"ECCENTRICITY":0.0029898,"INCLINATION":81.1579,"RA_OF_ASC_NODE":223.4863,"ARG_OF_PERICENTER":345.73,"MEAN_ANOMALY":14.3077,"EPHEMERIS_TYPE":0,"CLASSIFICATION_TYPE":"U","NORAD_CAT_ID":13154,"ELEMENT_SET_NO":999,"REV_AT_EPOCH":38065,"BSTAR":0.00018849,"MEAN_MOTION_DOT":3.119e-5,"MEAN_MOTION_DDOT":0},{"OBJECT_NAME":"SL-3 R/B","OBJECT_ID":"1982-079B","EPOCH":"2026-03-03T02:30:13.178016","MEAN_MOTION":15.24678066,"ECCENTRICITY":0.0024823,"INCLINATION":81.1472,"RA_OF_ASC_NODE":200.8511,"ARG_OF_PERICENTER":187.0382,"MEAN_ANOMALY":173.0507,"EPHEMERIS_TYPE":0,"CLASSIFICATION_TYPE":"U","NORAD_CAT_ID":13403,"ELEMENT_SET_NO":999,"REV_AT_EPOCH":37669,"BSTAR":0.00033111,"MEAN_MOTION_DOT":8.281e-5,"MEAN_MOTION_DDOT":0},{"OBJECT_NAME":"SL-14 R/B","OBJECT_ID":"1982-092B","EPOCH":"2026-03-03T04:22:34.704768","MEAN_MOTION":14.86658329,"ECCENTRICITY":0.0019438,"INCLINATION":82.5703,"RA_OF_ASC_NODE":147.4851,"ARG_OF_PERICENTER":326.3852,"MEAN_ANOMALY":95.9933,"EPHEMERIS_TYPE":0,"CLASSIFICATION_TYPE":"U","NORAD_CAT_ID":13553,"ELEMENT_SET_NO":999,"REV_AT_EPOCH":32796,"BSTAR":6.2257e-5,"MEAN_MOTION_DOT":5.79e-6,"MEAN_MOTION_DDOT":0},{"OBJECT_NAME":"SL-3 R/B","OBJECT_ID":"1983-010B","EPOCH":"2026-03-02T21:37:45.030432","MEAN_MOTION":15.46060551,"ECCENTRICITY":0.0018486,"INCLINATION":81.1056,"RA_OF_ASC_NODE":10.5663,"ARG_OF_PERICENTER":72.4754,"MEAN_ANOMALY":287.8509,"EPHEMERIS_TYPE":0,"CLASSIFICATION_TYPE":"U","NORAD_CAT_ID":13819,"ELEMENT_SET_NO":999,"REV_AT_EPOCH":35689,"BSTAR":0.00038385,"MEAN_MOTION_DOT":0.00018932,"MEAN_MOTION_DDOT":0},{"OBJECT_NAME":"SL-3 R/B","OBJECT_ID":"1983-075B","EPOCH":"2026-03-03T02:48:50.717952","MEAN_MOTION":15.38223095,"ECCENTRICITY":0.0019703,"INCLINATION":97.6131,"RA_OF_ASC_NODE":66.4463,"ARG_OF_PERICENTER":251.6251,"MEAN_ANOMALY":108.2851,"EPHEMERIS_TYPE":0,"CLASSIFICATION_TYPE":"U","NORAD_CAT_ID":14208,"ELEMENT_SET_NO":999,"REV_AT_EPOCH":32914,"BSTAR":0.00033691,"MEAN_MOTION_DOT":0.00012686,"MEAN_MOTION_DDOT":0},{"OBJECT_NAME":"COSMOS 1536","OBJECT_ID":"1984-013A","EPOCH":"2026-03-03T03:40:25.233312","MEAN_MOTION":15.23722038,"ECCENTRICITY":0.0012827,"INCLINATION":82.5438,"RA_OF_ASC_NODE":114.3482,"ARG_OF_PERICENTER":309.1354,"MEAN_ANOMALY":50.8742,"EPHEMERIS_TYPE":0,"CLASSIFICATION_TYPE":"U","NORAD_CAT_ID":14699,"ELEMENT_SET_NO":999,"REV_AT_EPOCH":27162,"BSTAR":0.00031156,"MEAN_MOTION_DOT":7.531e-5,"MEAN_MOTION_DDOT":0},{"OBJECT_NAME":"SL-14 R/B","OBJECT_ID":"1984-027B","EPOCH":"2026-03-03T00:38:29.331168","MEAN_MOTION":14.8596798,"ECCENTRICITY":0.0017943,"INCLINATION":82.5381,"RA_OF_ASC_NODE":251.2636,"ARG_OF_PERICENTER":0.5069,"MEAN_ANOMALY":359.6162,"EPHEMERIS_TYPE":0,"CLASSIFICATION_TYPE":"U","NORAD_CAT_ID":14820,"ELEMENT_SET_NO":999,"REV_AT_EPOCH":24664,"BSTAR":6.1946e-5,"MEAN_MOTION_DOT":5.66e-6,"MEAN_MOTION_DDOT":0},{"OBJECT_NAME":"SL-8 R/B","OBJECT_ID":"1985-006B","EPOCH":"2026-03-03T01:35:42.351360","MEAN_MOTION":14.37777951,"ECCENTRICITY":0.0018721,"INCLINATION":74.0434,"RA_OF_ASC_NODE":273.3369,"ARG_OF_PERICENTER":192.6546,"MEAN_ANOMALY":324.5251,"EPHEMERIS_TYPE":0,"CLASSIFICATION_TYPE":"U","NORAD_CAT_ID":15483,"ELEMENT_SET_NO":999,"REV_AT_EPOCH":15307,"BSTAR":7.206e-5,"MEAN_MOTION_DOT":1.91e-6,"MEAN_MOTION_DDOT":0},{"OBJECT_NAME":"SL-12 R/B(2)","OBJECT_ID":"1985-042D","EPOCH":"2026-03-03T03:39:17.551008","MEAN_MOTION":14.21980316,"ECCENTRICITY":0.003353,"INCLINATION":71.1065,"RA_OF_ASC_NODE":101.5417,"ARG_OF_PERICENTER":138.8468,"MEAN_ANOMALY":283.6433,"EPHEMERIS_TYPE":0,"CLASSIFICATION_TYPE":"U","NORAD_CAT_ID":15772,"ELEMENT_SET_NO":999,"REV_AT_EPOCH":11346,"BSTAR":9.4589e-5,"MEAN_MOTION_DOT":1.63e-6,"MEAN_MOTION_DDOT":0},{"OBJECT_NAME":"SL-14 R/B","OBJECT_ID":"1985-069B","EPOCH":"2026-03-02T22:42:32.596704","MEAN_MOTION":14.86423453,"ECCENTRICITY":0.0017886,"INCLINATION":82.527,"RA_OF_ASC_NODE":31.2736,"ARG_OF_PERICENTER":210.6632,"MEAN_ANOMALY":149.3541,"EPHEMERIS_TYPE":0,"CLASSIFICATION_TYPE":"U","NORAD_CAT_ID":15945,"ELEMENT_SET_NO":999,"REV_AT_EPOCH":17183,"BSTAR":7.0381e-5,"MEAN_MOTION_DOT":6.47e-6,"MEAN_MOTION_DDOT":0},{"OBJECT_NAME":"SL-16 R/B","OBJECT_ID":"1985-097B","EPOCH":"2026-03-03T04:48:12.717216","MEAN_MOTION":14.16599591,"ECCENTRICITY":0.0009938,"INCLINATION":71.0037,"RA_OF_ASC_NODE":154.2157,"ARG_OF_PERICENTER":267.402,"MEAN_ANOMALY":114.7523,"EPHEMERIS_TYPE":0,"CLASSIFICATION_TYPE":"U","NORAD_CAT_ID":16182,"ELEMENT_SET_NO":999,"REV_AT_EPOCH":8631,"BSTAR":2.4245e-5,"MEAN_MOTION_DOT":0,"MEAN_MOTION_DDOT":0}]
